[{"OBJECT_NAME":"COSMOS 2251 DEB","OBJECT_ID":"1993-036DE","EPOCH":"2026-03-29T04:53:34.982304","MEAN_MOTION":15.34080011,"ECCENTRICITY":0.0033476,"INCLINATION":73.7714,"RA_OF_ASC_NODE":181.1634,"ARG_OF_PERICENTER":303.0461,"MEAN_ANOMALY":56.7528,"EPHEMERIS_TYPE":0,"CLASSIFICATION_TYPE":"U","NORAD_CAT_ID":33901,"ELEMENT_SET_NO":999,"REV_AT_EPOCH":91135,"BSTAR":0.0055251,"MEAN_MOTION_DOT":0.0019011,"MEAN_MOTION_DDOT":0},{"OBJECT_NAME":"COSMOS 2251 DEB","OBJECT_ID":"1993-036DJ","EPOCH":"2026-03-29T04:44:48.717312","MEAN_MOTION":14.35805429,"ECCENTRICITY":0.0057867,"INCLINATION":73.8839,"RA_OF_ASC_NODE":119.5415,"ARG_OF_PERICENTER":342.7665,"MEAN_ANOMALY":83.6994,"EPHEMERIS_TYPE":0,"CLASSIFICATION_TYPE":"U","NORAD_CAT_ID":33905,"ELEMENT_SET_NO":999,"REV_AT_EPOCH":89215,"BSTAR":0.00057061,"MEAN_MOTION_DOT":1.656e-5,"MEAN_MOTION_DDOT":0},{"OBJECT_NAME":"COSMOS 2251 DEB","OBJECT_ID":"1993-036DK","EPOCH":"2026-03-29T01:57:49.011264","MEAN_MOTION":14.59042809,"ECCENTRICITY":0.0031417,"INCLINATION":74.028,"RA_OF_ASC_NODE":119.0851,"ARG_OF_PERICENTER":133.9061,"MEAN_ANOMALY":257.5105,"EPHEMERIS_TYPE":0,"CLASSIFICATION_TYPE":"U","NORAD_CAT_ID":33906,"ELEMENT_SET_NO":999,"REV_AT_EPOCH":89558,"BSTAR":0.0013785,"MEAN_MOTION_DOT":6.499e-5,"MEAN_MOTION_DDOT":0},{"OBJECT_NAME":"COSMOS 2251 DEB","OBJECT_ID":"1993-036DL","EPOCH":"2026-03-29T01:53:37.779936","MEAN_MOTION":14.31994359,"ECCENTRICITY":0.0114826,"INCLINATION":74.0692,"RA_OF_ASC_NODE":200.2591,"ARG_OF_PERICENTER":231.2374,"MEAN_ANOMALY":309.1597,"EPHEMERIS_TYPE":0,"CLASSIFICATION_TYPE":"U","NORAD_CAT_ID":33907,"ELEMENT_SET_NO":999,"REV_AT_EPOCH":88101,"BSTAR":0.0025836,"MEAN_MOTION_DOT":7.436e-5,"MEAN_MOTION_DDOT":0},{"OBJECT_NAME":"COSMOS 2251 DEB","OBJECT_ID":"1993-036DM","EPOCH":"2026-03-29T04:03:28.742688","MEAN_MOTION":14.08340852,"ECCENTRICITY":0.0217698,"INCLINATION":73.8388,"RA_OF_ASC_NODE":16.7539,"ARG_OF_PERICENTER":21.083,"MEAN_ANOMALY":339.9109,"EPHEMERIS_TYPE":0,"CLASSIFICATION_TYPE":"U","NORAD_CAT_ID":33908,"ELEMENT_SET_NO":999,"REV_AT_EPOCH":86971,"BSTAR":0.0031847,"MEAN_MOTION_DOT":6.755e-5,"MEAN_MOTION_DDOT":0},{"OBJECT_NAME":"COSMOS 2251 DEB","OBJECT_ID":"1993-036DQ","EPOCH":"2026-03-29T01:05:57.024096","MEAN_MOTION":14.7800811,"ECCENTRICITY":0.0014172,"INCLINATION":74.0911,"RA_OF_ASC_NODE":314.3177,"ARG_OF_PERICENTER":214.6659,"MEAN_ANOMALY":299.3298,"EPHEMERIS_TYPE":0,"CLASSIFICATION_TYPE":"U","NORAD_CAT_ID":33911,"ELEMENT_SET_NO":999,"REV_AT_EPOCH":90213,"BSTAR":0.0017323,"MEAN_MOTION_DOT":0.00012514,"MEAN_MOTION_DDOT":0},{"OBJECT_NAME":"COSMOS 2251 DEB","OBJECT_ID":"1993-036DR","EPOCH":"2026-03-29T04:22:43.091616","MEAN_MOTION":14.52672941,"ECCENTRICITY":0.0009253,"INCLINATION":74.0368,"RA_OF_ASC_NODE":349.0828,"ARG_OF_PERICENTER":44.215,"MEAN_ANOMALY":116.0713,"EPHEMERIS_TYPE":0,"CLASSIFICATION_TYPE":"U","NORAD_CAT_ID":33912,"ELEMENT_SET_NO":999,"REV_AT_EPOCH":89978,"BSTAR":0.0008073,"MEAN_MOTION_DOT":3.284e-5,"MEAN_MOTION_DDOT":0},{"OBJECT_NAME":"COSMOS 2251 DEB","OBJECT_ID":"1993-036DS","EPOCH":"2026-03-28T18:55:50.884032","MEAN_MOTION":14.49003712,"ECCENTRICITY":0.00460159,"INCLINATION":74.0368,"RA_OF_ASC_NODE":344.8722,"ARG_OF_PERICENTER":61.7763,"MEAN_ANOMALY":15.5461,"EPHEMERIS_TYPE":0,"CLASSIFICATION_TYPE":"U","NORAD_CAT_ID":33913,"ELEMENT_SET_NO":999,"REV_AT_EPOCH":89993,"BSTAR":0.00049607881,"MEAN_MOTION_DOT":1.879e-5,"MEAN_MOTION_DDOT":0},{"OBJECT_NAME":"COSMOS 2251 DEB","OBJECT_ID":"1993-036DT","EPOCH":"2026-03-29T05:45:25.905024","MEAN_MOTION":13.72141908,"ECCENTRICITY":0.0304314,"INCLINATION":74.0909,"RA_OF_ASC_NODE":199.5476,"ARG_OF_PERICENTER":277.7269,"MEAN_ANOMALY":98.8917,"EPHEMERIS_TYPE":0,"CLASSIFICATION_TYPE":"U","NORAD_CAT_ID":33914,"ELEMENT_SET_NO":999,"REV_AT_EPOCH":85542,"BSTAR":0.00070697,"MEAN_MOTION_DOT":8.71e-6,"MEAN_MOTION_DDOT":0},{"OBJECT_NAME":"COSMOS 2251 DEB","OBJECT_ID":"1993-036DU","EPOCH":"2026-03-28T17:45:44.105184","MEAN_MOTION":14.35415322,"ECCENTRICITY":0.01068136,"INCLINATION":74.0432,"RA_OF_ASC_NODE":199.7841,"ARG_OF_PERICENTER":266.117,"MEAN_ANOMALY":257.2515,"EPHEMERIS_TYPE":0,"CLASSIFICATION_TYPE":"U","NORAD_CAT_ID":33915,"ELEMENT_SET_NO":999,"REV_AT_EPOCH":89278,"BSTAR":0.0004550678,"MEAN_MOTION_DOT":1.366e-5,"MEAN_MOTION_DDOT":0},{"OBJECT_NAME":"COSMOS 2251 DEB","OBJECT_ID":"1993-036DV","EPOCH":"2026-03-29T02:48:14.981184","MEAN_MOTION":13.6871187,"ECCENTRICITY":0.0324246,"INCLINATION":74.0505,"RA_OF_ASC_NODE":225.7947,"ARG_OF_PERICENTER":13.9545,"MEAN_ANOMALY":160.1206,"EPHEMERIS_TYPE":0,"CLASSIFICATION_TYPE":"U","NORAD_CAT_ID":33916,"ELEMENT_SET_NO":999,"REV_AT_EPOCH":85346,"BSTAR":0.00022332,"MEAN_MOTION_DOT":2.55e-6,"MEAN_MOTION_DDOT":0},{"OBJECT_NAME":"COSMOS 2251 DEB","OBJECT_ID":"1993-036DW","EPOCH":"2026-03-29T01:43:05.501280","MEAN_MOTION":13.69704226,"ECCENTRICITY":0.0331388,"INCLINATION":74.1077,"RA_OF_ASC_NODE":308.006,"ARG_OF_PERICENTER":24.2943,"MEAN_ANOMALY":337.3397,"EPHEMERIS_TYPE":0,"CLASSIFICATION_TYPE":"U","NORAD_CAT_ID":33917,"ELEMENT_SET_NO":999,"REV_AT_EPOCH":85189,"BSTAR":0.0005227,"MEAN_MOTION_DOT":6.51e-6,"MEAN_MOTION_DDOT":0},{"OBJECT_NAME":"COSMOS 2251 DEB","OBJECT_ID":"1993-036DZ","EPOCH":"2026-03-29T00:49:59.519424","MEAN_MOTION":14.6011166,"ECCENTRICITY":0.0030274,"INCLINATION":74.0599,"RA_OF_ASC_NODE":96.1392,"ARG_OF_PERICENTER":77.7851,"MEAN_ANOMALY":282.6703,"EPHEMERIS_TYPE":0,"CLASSIFICATION_TYPE":"U","NORAD_CAT_ID":33920,"ELEMENT_SET_NO":999,"REV_AT_EPOCH":89665,"BSTAR":0.0013888,"MEAN_MOTION_DOT":6.701e-5,"MEAN_MOTION_DDOT":0},{"OBJECT_NAME":"COSMOS 2251 DEB","OBJECT_ID":"1993-036EB","EPOCH":"2026-03-29T01:06:33.524640","MEAN_MOTION":14.49910059,"ECCENTRICITY":0.0021685,"INCLINATION":74.0468,"RA_OF_ASC_NODE":308.3691,"ARG_OF_PERICENTER":31.363,"MEAN_ANOMALY":129.7418,"EPHEMERIS_TYPE":0,"CLASSIFICATION_TYPE":"U","NORAD_CAT_ID":33922,"ELEMENT_SET_NO":999,"REV_AT_EPOCH":90118,"BSTAR":0.00032045,"MEAN_MOTION_DOT":1.215e-5,"MEAN_MOTION_DDOT":0},{"OBJECT_NAME":"COSMOS 2251 DEB","OBJECT_ID":"1993-036ED","EPOCH":"2026-03-29T03:29:48.372864","MEAN_MOTION":13.50395631,"ECCENTRICITY":0.0400808,"INCLINATION":73.9099,"RA_OF_ASC_NODE":99.1506,"ARG_OF_PERICENTER":115.4194,"MEAN_ANOMALY":248.8959,"EPHEMERIS_TYPE":0,"CLASSIFICATION_TYPE":"U","NORAD_CAT_ID":33924,"ELEMENT_SET_NO":999,"REV_AT_EPOCH":84175,"BSTAR":0.00038555,"MEAN_MOTION_DOT":3.88e-6,"MEAN_MOTION_DDOT":0},{"OBJECT_NAME":"COSMOS 2251 DEB","OBJECT_ID":"1993-036EH","EPOCH":"2026-03-29T01:36:51.907680","MEAN_MOTION":14.47669828,"ECCENTRICITY":0.0059609,"INCLINATION":73.9253,"RA_OF_ASC_NODE":212.3271,"ARG_OF_PERICENTER":124.9621,"MEAN_ANOMALY":235.7156,"EPHEMERIS_TYPE":0,"CLASSIFICATION_TYPE":"U","NORAD_CAT_ID":33928,"ELEMENT_SET_NO":999,"REV_AT_EPOCH":90183,"BSTAR":0.00032301,"MEAN_MOTION_DOT":1.19e-5,"MEAN_MOTION_DDOT":0}]
