COSMOS 2251 DEB         
1 33901U 93036DE  26088.20387711  .00190110  00000+0  55251-2 0  9991
2 33901  73.7714 181.1634 0033476 303.0461  56.7528 15.34080011911356
COSMOS 2251 DEB         
1 33905U 93036DJ  26088.19778608  .00001656  00000+0  57061-3 0  9990
2 33905  73.8839 119.5415 0057867 342.7665  83.6994 14.35805429892157
COSMOS 2251 DEB         
1 33906U 93036DK  26088.08181726  .00006499  00000+0  13785-2 0  9992
2 33906  74.0280 119.0851 0031417 133.9061 257.5105 14.59042809895580
COSMOS 2251 DEB         
1 33907U 93036DL  26088.07890949  .00007436  00000+0  25836-2 0  9998
2 33907  74.0692 200.2591 0114826 231.2374 309.1597 14.31994359881015
COSMOS 2251 DEB         
1 33908U 93036DM  26088.16908267  .00006755  00000+0  31847-2 0  9994
2 33908  73.8388  16.7539 0217698  21.0830 339.9109 14.08340852869710
COSMOS 2251 DEB         
1 33911U 93036DQ  26088.04579889  .00012514  00000+0  17323-2 0  9992
2 33911  74.0911 314.3177 0014172 214.6659 299.3298 14.78008110902132
COSMOS 2251 DEB         
1 33912U 93036DR  26088.18244319  .00003284  00000+0  80730-3 0  9992
2 33912  74.0368 349.0828 0009253  44.2150 116.0713 14.52672941899788
COSMOS 2251 DEB         
1 33913U 93036DS  26087.78878338  .00001879  00000+0  49608-3 0  9999
2 33913  74.0368 344.8722 0046015  61.7763  15.5461 14.49003712899936
COSMOS 2251 DEB         
1 33914U 93036DT  26088.23988316  .00000871  00000+0  70697-3 0  9992
2 33914  74.0909 199.5476 0304314 277.7269  98.8917 13.72141908855429
COSMOS 2251 DEB         
1 33915U 93036DU  26087.74009381  .00001366  00000+0  45507-3 0  9996
2 33915  74.0432 199.7841 0106813 266.1170 257.2515 14.35415322892785
COSMOS 2251 DEB         
1 33916U 93036DV  26088.11684006  .00000255  00000+0  22332-3 0  9999
2 33916  74.0505 225.7947 0324246  13.9545 160.1206 13.68711870853463
COSMOS 2251 DEB         
1 33917U 93036DW  26088.07159145  .00000651  00000+0  52270-3 0  9990
2 33917  74.1077 308.0060 0331388  24.2943 337.3397 13.69704226851894
COSMOS 2251 DEB         
1 33920U 93036DZ  26088.03471666  .00006701  00000+0  13888-2 0  9998
2 33920  74.0599  96.1392 0030274  77.7851 282.6703 14.60111660896652
COSMOS 2251 DEB         
1 33922U 93036EB  26088.04622135  .00001215  00000+0  32045-3 0  9992
2 33922  74.0468 308.3691 0021685  31.3630 129.7418 14.49910059901181
COSMOS 2251 DEB         
1 33924U 93036ED  26088.14569876  .00000388  00000+0  38555-3 0  9999
2 33924  73.9099  99.1506 0400808 115.4194 248.8959 13.50395631841751
COSMOS 2251 DEB         
1 33928U 93036EH  26088.06726745  .00001190  00000+0  32301-3 0  9999
2 33928  73.9253 212.3271 0059609 124.9621 235.7156 14.47669828901833
